[
  {"suburb":"Epping","state":"VIC","postcode":"3076"},
  {"suburb":"Coburg","state":"VIC","postcode":"3058"},
  {"suburb":"Melbourne","state":"VIC","postcode":"3000"},
  {"suburb":"Brunswick","state":"VIC","postcode":"3056"},
  {"suburb":"South Yarra","state":"VIC","postcode":"3141"},
  {"suburb":"Richmond","state":"VIC","postcode":"3121"},
  {"suburb":"Geelong","state":"VIC","postcode":"3220"},
  {"suburb":"Carlton","state":"VIC","postcode":"3053"},
  {"suburb":"Footscray","state":"VIC","postcode":"3011"},
  {"suburb":"St Kilda","state":"VIC","postcode":"3182"},

  {"suburb":"Sydney","state":"NSW","postcode":"2000"},
  {"suburb":"Parramatta","state":"NSW","postcode":"2150"},
  {"suburb":"Newcastle","state":"NSW","postcode":"2300"},
  {"suburb":"Wollongong","state":"NSW","postcode":"2500"},
  {"suburb":"Bondi","state":"NSW","postcode":"2026"},
  {"suburb":"Chatswood","state":"NSW","postcode":"2067"},

  {"suburb":"Brisbane","state":"QLD","postcode":"4000"},
  {"suburb":"Gold Coast","state":"QLD","postcode":"4217"},
  {"suburb":"Sunshine Coast","state":"QLD","postcode":"4551"},
  {"suburb":"Toowong","state":"QLD","postcode":"4066"},
  {"suburb":"Mount Gravatt","state":"QLD","postcode":"4122"},

  {"suburb":"Adelaide","state":"SA","postcode":"5000"},
  {"suburb":"Glenelg","state":"SA","postcode":"5045"},
  {"suburb":"Norwood","state":"SA","postcode":"5067"},
  {"suburb":"Prospect","state":"SA","postcode":"5082"},

  {"suburb":"Perth","state":"WA","postcode":"6000"},
  {"suburb":"Fremantle","state":"WA","postcode":"6160"},
  {"suburb":"Joondalup","state":"WA","postcode":"6027"},
  {"suburb":"Rockingham","state":"WA","postcode":"6168"},

  {"suburb":"Hobart","state":"TAS","postcode":"7000"},
  {"suburb":"Launceston","state":"TAS","postcode":"7250"},
  {"suburb":"Sandy Bay","state":"TAS","postcode":"7005"},

  {"suburb":"Darwin","state":"NT","postcode":"0800"},
  {"suburb":"Alice Springs","state":"NT","postcode":"0870"},

  {"suburb":"Canberra","state":"ACT","postcode":"2601"},
  {"suburb":"Belconnen","state":"ACT","postcode":"2617"}
]
